HAWK-2A                 
1 47505U 21006CW  26068.67946547  .00008113  00000+0  25431-3 0  9990
2 47505  97.2459 115.6184 0006450 187.1463 172.9689 15.33304498284242
STARLINK-32185          
1 60341U 24136N   26068.28404020  .00003511  00000+0  13056-3 0  9999
2 60341  53.1604  77.4677 0001635  79.0304 281.0880 15.30217520 89607
